{
  "norad_id": 68731,
  "name": "STARLINK-37202",
  "history": [
    {
      "epoch": "2026-04-23T13:17:36.308544Z",
      "apogee_km": 328.09693881261046,
      "perigee_km": 327.0606374947092,
      "latitude_deg": -2.9366108783677043e-05,
      "longitude_deg": -75.32924458493953,
      "height_km": 330.8768401141187,
      "semi_major_axis_km": 6705.71578815366,
      "eccentricity": 7.727e-05,
      "inclination_deg": 97.2884,
      "raan_deg": 335.6715,
      "arg_perigee_deg": 103.7513,
      "mean_anomaly_deg": 256.3841,
      "mean_motion_rev_day": 15.8101157
    }
  ]
}