STARLINK-37202          
1 68731U 26082D   26113.55389246 -.00461904  00000+0 -25180-2 0  9991
2 68731  97.2884 335.6715 0000772 103.7513 256.3841 15.81011570  1189
